{"type": "FeatureCollection", "features": [{"type": "Feature", "properties": {"from": "gexi", "to": "liangcha", "endpoints": [[101.9189721, 29.8808554], [101.8597412, 29.8425052]], "verified": true, "basis": "OSM 连通步道；端点吸附误差单独保留；非现场 GPX 或通行确认", "source": "https://www.openstreetmap.org/copyright", "wayIds": ["277794654", "543810263", "524540851", "277794661", "277794667", "1232032130", "56724062", "524019343", "1451350835"], "endpointOffsetMeters": [10, 173], "distanceKm": 7.73}, "geometry": {"type": "LineString", "coordinates": [[101.9189216, 29.8809386], [101.9188035, 29.8806511], [101.9187028, 29.8805378], [101.9185979, 29.8804533], [101.918182, 29.879948], [101.918045, 29.879702], [101.9178551, 29.879523], [101.9176991, 29.879258], [101.9175892, 29.879139], [101.9174776, 29.8790865], [101.917329, 29.878972], [101.9172255, 29.8789255], [101.9170183, 29.8788715], [101.916925, 29.8788111], [101.9165997, 29.878823], [101.9164315, 29.878718], [101.9162036, 29.878661], [101.915977, 29.878646], [101.9158033, 29.878537], [101.9156681, 29.8784895], [101.9154936, 29.878498], [101.9151497, 29.8784066], [101.9150126, 29.87843], [101.9148779, 29.878381], [101.914573, 29.878372], [101.9142723, 29.8782973], [101.91414, 29.8782965], [101.9139444, 29.878247], [101.9136752, 29.878226], [101.9136188, 29.878124], [101.9135313, 29.8780608], [101.9134387, 29.8779094], [101.9132908, 29.877826], [101.9130826, 29.87781], [101.9129663, 29.877641], [101.9128662, 29.8776271], [101.9128092, 29.8775668], [101.9127836, 29.8773919], [101.912735, 29.877333], [101.9126442, 29.877184], [101.9122518, 29.877028], [101.9121478, 29.8769311], [101.9120646, 29.8768062], [101.9119673, 29.8767363], [101.9117721, 29.87674], [101.911646, 29.8767078], [101.9114651, 29.8765633], [101.9112611, 29.8764948], [101.9111347, 29.8765767], [101.9109749, 29.8765923], [101.9108105, 29.8765645], [101.9106013, 29.8764284], [101.9104529, 29.876358], [101.9101954, 29.8764244], [101.9101364, 29.8763858], [101.909999, 29.8762151], [101.9098349, 29.876138], [101.9097164, 29.876018], [101.909607, 29.8758965], [101.9095589, 29.8757177], [101.9094785, 29.8756229], [101.9093403, 29.8754011], [101.9091888, 29.8751825], [101.9090686, 29.875124], [101.9090021, 29.8750222], [101.9089006, 29.8749489], [101.9086874, 29.8749252], [101.9085448, 29.8747593], [101.9084589, 29.8746958], [101.9083952, 29.874574], [101.9082854, 29.8744491], [101.9081907, 29.8743765], [101.9080491, 29.8742276], [101.9080016, 29.8740935], [101.9079787, 29.8738882], [101.907913, 29.8737998], [101.9078965, 29.8736205], [101.9078671, 29.8735703], [101.90784, 29.8734655], [101.9076829, 29.8733099], [101.9075842, 29.8731031], [101.9074683, 29.872981], [101.9067897, 29.8726781], [101.9065833, 29.8725316], [101.9064408, 29.8725114], [101.9063537, 29.8724312], [101.9062487, 29.8723707], [101.9061769, 29.8722258], [101.9060518, 29.872148], [101.9059189, 29.8719805], [101.9057697, 29.8718965], [101.9056287, 29.8718704], [101.9055138, 29.8718168], [101.9053163, 29.8718264], [101.9050819, 29.871868], [101.904957, 29.8718105], [101.904862, 29.871743], [101.904663, 29.871674], [101.904549, 29.87158], [101.9044144, 29.871591], [101.9042567, 29.87153], [101.9041224, 29.871521], [101.9039967, 29.8714967], [101.9039001, 29.8714377], [101.903801, 29.871345], [101.9036469, 29.87132], [101.9034328, 29.871253], [101.9033199, 29.871279], [101.9031679, 29.871243], [101.903076, 29.871243], [101.9028919, 29.871173], [101.9027602, 29.871206], [101.902504, 29.871227], [101.9023007, 29.871165], [101.9022174, 29.871195], [101.9020658, 29.87121], [101.9016778, 29.871135], [101.9014987, 29.8710115], [101.9013311, 29.870966], [101.901276, 29.870883], [101.9011841, 29.870844], [101.9011403, 29.870804], [101.901161, 29.870731], [101.9011495, 29.870602], [101.9011318, 29.8705408], [101.9010828, 29.870521], [101.900972, 29.8704534], [101.9008804, 29.8703357], [101.9007032, 29.8702257], [101.9006016, 29.8701865], [101.900514, 29.870088], [101.9004033, 29.8700414], [101.9002443, 29.8699302], [101.9001291, 29.8698869], [101.900063, 29.8698214], [101.9000149, 29.8696859], [101.899918, 29.8695479], [101.8998722, 29.8694869], [101.8998118, 29.8694499], [101.8997128, 29.8694279], [101.89962, 29.8693561], [101.8995447, 29.8693413], [101.8994988, 29.8693036], [101.899475, 29.869226], [101.899429, 29.869183], [101.8993735, 29.8691732], [101.8992963, 29.8692221], [101.8992246, 29.8691616], [101.899124, 29.869123], [101.8989705, 29.8690733], [101.89888, 29.86903], [101.898804, 29.868916], [101.8986714, 29.8688629], [101.8983157, 29.8685534], [101.898202, 29.8685], [101.8979694, 29.8684661], [101.8977729, 29.8682963], [101.8976502, 29.868227], [101.89756, 29.868093], [101.8974613, 29.8680193], [101.8973873, 29.8679784], [101.8973261, 29.8679066], [101.8972226, 29.8678757], [101.8970876, 29.8678154], [101.897003, 29.867773], [101.8969374, 29.8676692], [101.8968587, 29.8676183], [101.896809, 29.867559], [101.8966607, 29.8674865], [101.8965522, 29.8673615], [101.8964243, 29.8672668], [101.8963867, 29.867182], [101.8963459, 29.867098], [101.8963468, 29.8670157], [101.8963738, 29.866955], [101.8964179, 29.86686], [101.8963954, 29.866698], [101.8963776, 29.8666005], [101.8961525, 29.866351], [101.8960388, 29.8662734], [101.8959547, 29.8661406], [101.8959259, 29.8659652], [101.8958241, 29.8658185], [101.8956898, 29.865628], [101.8955707, 29.8655199], [101.8954715, 29.8652285], [101.8953995, 29.8651452], [101.8952814, 29.865086], [101.895008, 29.8648333], [101.894836, 29.864682], [101.894661, 29.864588], [101.8943479, 29.86431], [101.894074, 29.8641143], [101.8939697, 29.8640436], [101.8938636, 29.8639036], [101.8934949, 29.8637249], [101.893173, 29.863564], [101.8930568, 29.8634801], [101.892936, 29.8634482], [101.8927267, 29.8633403], [101.8926032, 29.8633085], [101.8923992, 29.863217], [101.89209, 29.863127], [101.891945, 29.863018], [101.891753, 29.862993], [101.891655, 29.862925], [101.8914301, 29.8628214], [101.891266, 29.862743], [101.8910148, 29.8625979], [101.8908846, 29.862563], [101.8907673, 29.8624912], [101.8905732, 29.8622903], [101.8903891, 29.8622109], [101.8902354, 29.8621967], [101.8900414, 29.8622288], [101.8898809, 29.8620562], [101.8897158, 29.8620014], [101.889618, 29.861906], [101.8894426, 29.8618324], [101.88911, 29.8617661], [101.8889463, 29.8616918], [101.8888983, 29.8616133], [101.888862, 29.8614298], [101.8887545, 29.8612431], [101.8886481, 29.8611431], [101.8885438, 29.8609951], [101.8884743, 29.860963], [101.8883848, 29.8609413], [101.8883329, 29.8608616], [101.8883376, 29.8607342], [101.8882658, 29.8605429], [101.8881624, 29.8604597], [101.8880114, 29.8604186], [101.8879382, 29.8603843], [101.8878812, 29.8602956], [101.8877089, 29.8602623], [101.8874936, 29.860191], [101.8873822, 29.8601899], [101.8873138, 29.8601333], [101.8872115, 29.8600277], [101.8870309, 29.8598664], [101.8869257, 29.8597191], [101.8867677, 29.8596043], [101.8865823, 29.8595539], [101.8864415, 29.8594822], [101.8862513, 29.859256], [101.8860352, 29.8590886], [101.885857, 29.858894], [101.8857501, 29.8587354], [101.8856684, 29.8585294], [101.8855526, 29.8584217], [101.8854134, 29.8583416], [101.8853214, 29.8582423], [101.8852933, 29.8581606], [101.8851761, 29.8580656], [101.8850234, 29.8578796], [101.8849341, 29.8577749], [101.8846696, 29.8576638], [101.8845985, 29.8576242], [101.8844404, 29.8575805], [101.8841956, 29.8575641], [101.883568, 29.8570964], [101.8834198, 29.8569822], [101.882999, 29.8562879], [101.8828657, 29.855967], [101.8822558, 29.855745], [101.8818276, 29.8555011], [101.8816227, 29.8553166], [101.8813011, 29.8552141], [101.8808765, 29.8552159], [101.8805992, 29.854953], [101.8801783, 29.8546943], [101.879536, 29.8544199], [101.8792905, 29.8542512], [101.8788654, 29.85415], [101.8783154, 29.85392], [101.8776351, 29.8538532], [101.8766602, 29.8535095], [101.8764463, 29.8533084], [101.8760881, 29.8530183], [101.8758071, 29.8528833], [101.8752534, 29.8524103], [101.8744781, 29.8520088], [101.874517, 29.8519543], [101.87471, 29.851879], [101.874756, 29.851728], [101.874832, 29.851645], [101.8749705, 29.8512853], [101.8747645, 29.8512191], [101.8745522, 29.851122], [101.8743425, 29.8510862], [101.8741648, 29.8510002], [101.8739207, 29.8509364], [101.8737632, 29.8508512], [101.8735938, 29.8507296], [101.8734384, 29.8507049], [101.8730992, 29.8506286], [101.8728837, 29.8504886], [101.8725495, 29.8503704], [101.8722323, 29.8501836], [101.8718542, 29.8501071], [101.8714156, 29.849925], [101.8712032, 29.8498204], [101.8710536, 29.8498278], [101.8709359, 29.8498022], [101.8707419, 29.8498129], [101.8705449, 29.8497407], [101.8702505, 29.8495682], [101.8700619, 29.8495355], [101.8698498, 29.849369], [101.8697114, 29.849199], [101.8695812, 29.8491272], [101.8689829, 29.8488668], [101.868614, 29.8487703], [101.8683928, 29.8486187], [101.868107, 29.8484679], [101.8679968, 29.8482504], [101.8678329, 29.8481092], [101.8674799, 29.8479012], [101.8671289, 29.8475323], [101.8669727, 29.8473144], [101.8668093, 29.8472467], [101.8665293, 29.8471146], [101.8660625, 29.8468498], [101.8657889, 29.8467527], [101.8656802, 29.8466914], [101.8654168, 29.8464811], [101.8650935, 29.8462289], [101.8646901, 29.8457504], [101.864516, 29.8452824], [101.8644125, 29.8451433], [101.8641748, 29.8449136], [101.8639158, 29.8447637], [101.8637229, 29.8447095], [101.8634441, 29.8447216], [101.8633086, 29.8447351], [101.8631115, 29.8447158], [101.8629949, 29.8446352], [101.8624618, 29.8444012], [101.8623286, 29.8443222], [101.8622321, 29.8440467], [101.8621743, 29.8438353], [101.8620374, 29.8436177], [101.8618902, 29.842882], [101.8617173, 29.8424749], [101.8614883, 29.8421424], [101.8614127, 29.8418151], [101.861152, 29.8415493]]}}, {"type": "Feature", "properties": {"from": "liangcha", "to": "xiariwu", "endpoints": [[101.8597412, 29.8425052], [101.8512749, 29.8175478]], "verified": true, "basis": "OSM 连通步道；端点吸附误差单独保留；非现场 GPX 或通行确认", "source": "https://www.openstreetmap.org/copyright", "wayIds": ["277794665", "1411479374", "578617296", "1469163536", "277794654"], "endpointOffsetMeters": [173, 33], "distanceKm": 2.99}, "geometry": {"type": "LineString", "coordinates": [[101.861152, 29.8415493], [101.860995, 29.8412015], [101.8609679, 29.8411416], [101.8609553, 29.8409855], [101.8608055, 29.8406815], [101.8605298, 29.8404273], [101.8603727, 29.8403682], [101.8603059, 29.8403114], [101.8602356, 29.8401738], [101.8601925, 29.8398863], [101.8602509, 29.8393546], [101.8602848, 29.8391819], [101.8602739, 29.8391224], [101.8601614, 29.8389256], [101.8601465, 29.8387532], [101.8599842, 29.8383962], [101.8598248, 29.8381258], [101.8597704, 29.8380166], [101.8595737, 29.8378716], [101.8595289, 29.8376087], [101.8595549, 29.8374933], [101.8595365, 29.8373508], [101.8595374, 29.8371171], [101.8594381, 29.8370343], [101.859424, 29.8368907], [101.8594858, 29.8367542], [101.8593782, 29.836389], [101.859194, 29.8361582], [101.8591749, 29.8360058], [101.8590841, 29.8358929], [101.858966, 29.8357834], [101.8588932, 29.8356854], [101.8588305, 29.8354065], [101.858796, 29.8351689], [101.8587954, 29.8350288], [101.8587794, 29.8348226], [101.858728, 29.8347422], [101.85876, 29.8344005], [101.8587759, 29.8342046], [101.8588062, 29.8337841], [101.8587912, 29.833579], [101.8587664, 29.8335265], [101.8586515, 29.8334511], [101.858595, 29.8332997], [101.8584628, 29.8330079], [101.8584621, 29.8328336], [101.8585191, 29.8326532], [101.8584999, 29.8325131], [101.8584028, 29.8322424], [101.8583523, 29.8319571], [101.8582744, 29.8317622], [101.8581781, 29.8313924], [101.8581112, 29.8312373], [101.8580601, 29.8311247], [101.8578201, 29.8306149], [101.8577623, 29.8303413], [101.8577838, 29.8302157], [101.8575051, 29.8300565], [101.8568249, 29.8296681], [101.8566325, 29.8291273], [101.856579, 29.828457], [101.856367, 29.8279865], [101.8560584, 29.8275663], [101.8560156, 29.8273443], [101.855862, 29.8271217], [101.8557531, 29.8266698], [101.8558373, 29.8260879], [101.8556158, 29.8256071], [101.8552457, 29.8252671], [101.85512, 29.8248069], [101.8549213, 29.8246194], [101.8546429, 29.8244927], [101.8544587, 29.8237995], [101.8542093, 29.8235023], [101.8541102, 29.822623], [101.8536268, 29.8218838], [101.8532127, 29.8211997], [101.8528882, 29.8205123], [101.8528187, 29.8200695], [101.8527433, 29.8198584], [101.8524655, 29.8194344], [101.8523732, 29.8189415], [101.8522279, 29.8188017], [101.8517831, 29.8182527], [101.8516222, 29.8178788], [101.8512531, 29.8172477]]}}, {"type": "Feature", "properties": {"from": "xiariwu", "to": "shangriwu", "endpoints": [[101.8512749, 29.8175478], [101.8363371, 29.7924378]], "verified": true, "basis": "OSM 连通步道；端点吸附误差单独保留；非现场 GPX 或通行确认", "source": "https://www.openstreetmap.org/copyright", "wayIds": ["1232032128", "1232032127", "516180136", "277794665"], "endpointOffsetMeters": [33, 24], "distanceKm": 3.26}, "geometry": {"type": "LineString", "coordinates": [[101.8512531, 29.8172477], [101.8510153, 29.8165618], [101.8504308, 29.8158501], [101.8493391, 29.8150696], [101.8481459, 29.8139972], [101.8480119, 29.8138241], [101.8476284, 29.8135914], [101.8471831, 29.8133098], [101.8470658, 29.8130282], [101.8461412, 29.8121953], [101.8453648, 29.8111541], [101.8451554, 29.810701], [101.8448434, 29.8102543], [101.8447208, 29.8100249], [101.8444861, 29.8098236], [101.8440945, 29.8094154], [101.8430266, 29.8083736], [101.8429318, 29.8080688], [101.8427789, 29.8078547], [101.8424123, 29.807373], [101.8420359, 29.8069827], [101.8419622, 29.8066689], [101.8418053, 29.8064035], [101.8416215, 29.805959], [101.8415022, 29.8056623], [101.8412949, 29.8054956], [101.8408638, 29.8050129], [101.8407083, 29.8048279], [101.8405329, 29.8046817], [101.8402053, 29.8044951], [101.8398312, 29.8041308], [101.8396488, 29.8039446], [101.8395656, 29.8037561], [101.8391874, 29.8034745], [101.8390908, 29.8032581], [101.8389085, 29.8030415], [101.8386879, 29.8027611], [101.8387551, 29.8026493], [101.8387663, 29.8024306], [101.8386523, 29.8022456], [101.8386606, 29.8020073], [101.8380609, 29.8009043], [101.8375425, 29.7999509], [101.8375425, 29.7995522], [101.8372791, 29.7992896], [101.8371712, 29.7983264], [101.8370816, 29.798209], [101.8370773, 29.7981856], [101.8367691, 29.7977334], [101.8367699, 29.7974987], [101.8363824, 29.7965711], [101.8361358, 29.7963814], [101.8359901, 29.7958513], [101.8359594, 29.7954037], [101.8357884, 29.7949662], [101.8357547, 29.7942249], [101.8358524, 29.7941339], [101.8360841, 29.7937511], [101.8362182, 29.7926257]]}}, {"type": "Feature", "properties": {"from": "shangriwu", "to": "ridaman", "endpoints": [[101.8363371, 29.7924378], [101.7996269, 29.777668]], "verified": true, "basis": "OSM 连通步道；端点吸附误差单独保留；非现场 GPX 或通行确认", "source": "https://www.openstreetmap.org/copyright", "wayIds": ["1451351967", "1470258924", "1300369996", "543810261", "1232032125", "1232032126", "1232032128"], "endpointOffsetMeters": [24, 0], "distanceKm": 4.62}, "geometry": {"type": "LineString", "coordinates": [[101.8362182, 29.7926257], [101.8357117, 29.7916744], [101.8357004, 29.7916223], [101.8355799, 29.7913082], [101.8355235, 29.791122], [101.8354485, 29.7909876], [101.8353546, 29.7909654], [101.8352674, 29.7909288], [101.8352312, 29.7907775], [101.8351534, 29.7905098], [101.8349737, 29.7904469], [101.8346894, 29.7901862], [101.8344527, 29.7900317], [101.8341905, 29.7899022], [101.8338257, 29.789446], [101.8336139, 29.7892466], [101.8332598, 29.78902], [101.8328014, 29.7886194], [101.8325047, 29.788402], [101.8323451, 29.7882285], [101.8319736, 29.7879446], [101.8311426, 29.7870533], [101.8299601, 29.786314], [101.8288617, 29.7854726], [101.8281836, 29.7850349], [101.827687, 29.7845358], [101.8273318, 29.7843685], [101.8266614, 29.7839074], [101.8264778, 29.7837713], [101.8264239, 29.7836487], [101.826225, 29.7834563], [101.8257905, 29.7832813], [101.8248759, 29.7831098], [101.8245855, 29.7828977], [101.8241684, 29.7827162], [101.8236306, 29.7825742], [101.8233236, 29.78253], [101.8225108, 29.7822482], [101.822189, 29.7820772], [101.8218349, 29.7820015], [101.8216404, 29.781977], [101.8215328, 29.7820306], [101.8212622, 29.7818851], [101.8211283, 29.7814501], [101.8209887, 29.7813194], [101.8209015, 29.7811134], [101.8208479, 29.7809527], [101.820939, 29.7807456], [101.821057, 29.7805849], [101.8213642, 29.7802369], [101.8215412, 29.7800693], [101.8214822, 29.7799342], [101.8212005, 29.7798272], [101.820935, 29.7797084], [101.8206078, 29.7797503], [101.8203655, 29.7797965], [101.8198809, 29.7797317], [101.8196958, 29.7796735], [101.8193471, 29.7794943], [101.8190615, 29.7794093], [101.8188523, 29.779294], [101.8186618, 29.7792219], [101.8186739, 29.7789705], [101.8187396, 29.7787679], [101.818352, 29.7788738], [101.8182018, 29.778818], [101.8180315, 29.7786411], [101.8172524, 29.7779147], [101.8166006, 29.7771406], [101.8164101, 29.7770591], [101.8160902, 29.7770072], [101.8155907, 29.7768193], [101.8151683, 29.7767437], [101.814825, 29.7766797], [101.8143193, 29.7765318], [101.8141572, 29.7764432], [101.8138915, 29.7762979], [101.81247, 29.7756506], [101.8116653, 29.7754807], [101.8112871, 29.7754388], [101.8108746, 29.7754422], [101.8107908, 29.7754134], [101.810587, 29.7753433], [101.8101878, 29.7753453], [101.8096923, 29.7753837], [101.8093665, 29.7755484], [101.8090026, 29.7757298], [101.8086912, 29.775945], [101.8082889, 29.7760404], [101.807854, 29.7763296], [101.8075648, 29.7766097], [101.807353, 29.7766953], [101.8070248, 29.7767283], [101.806872, 29.7767237], [101.8065224, 29.7767184], [101.8062154, 29.7768525], [101.8059817, 29.7770237], [101.8056056, 29.7772072], [101.8053495, 29.7772072], [101.8051584, 29.7771772], [101.8047884, 29.7770219], [101.8044463, 29.7769387], [101.8039904, 29.7768941], [101.8035446, 29.7769211], [101.8032906, 29.7770238], [101.8029669, 29.7770818], [101.8028165, 29.7772067], [101.8024868, 29.7773085], [101.8019745, 29.7774153], [101.8017908, 29.7773651], [101.8016949, 29.7773564], [101.8015503, 29.7773783], [101.8011681, 29.7774738], [101.8009456, 29.7775168], [101.8006902, 29.7775906], [101.8003299, 29.7777029], [101.8000318, 29.7776924], [101.7998123, 29.7776677], [101.7997201, 29.7776476], [101.7996269, 29.777668]]}}, {"type": "Feature", "properties": {"from": "bangmu", "to": "ticket", "endpoints": [[101.7061694, 29.6258954], [101.6994159, 29.6381835]], "verified": true, "basis": "OSM 连通步道；端点吸附误差单独保留；非现场 GPX 或通行确认", "source": "https://www.openstreetmap.org/copyright", "wayIds": ["531386150", "1427046411", "1427046412", "1427046409", "1427046410"], "endpointOffsetMeters": [0, 0], "distanceKm": 1.83}, "geometry": {"type": "LineString", "coordinates": [[101.7061694, 29.6258954], [101.7056054, 29.6258424], [101.7052245, 29.6258237], [101.7048812, 29.6260196], [101.7048061, 29.6261338], [101.7047712, 29.6264556], [101.7047658, 29.6266957], [101.7045486, 29.6268939], [101.7041892, 29.6273393], [101.7040926, 29.6275305], [101.7040872, 29.6277356], [101.7041463, 29.6283884], [101.7040873, 29.6287848], [101.7040605, 29.6289947], [101.7041409, 29.6292698], [101.7045003, 29.6296895], [101.7048812, 29.6300624], [101.7050958, 29.6302163], [101.7054015, 29.6304122], [101.7055513, 29.6307708], [101.7055657, 29.6308783], [101.7053265, 29.6311279], [101.7050475, 29.6315825], [101.704857, 29.6319252], [101.7046599, 29.632219], [101.7046053, 29.6323551], [101.7044842, 29.6324372], [101.7042438, 29.6325404], [101.7039178, 29.6327394], [101.7037678, 29.6328944], [101.7036991, 29.6329655], [101.7031285, 29.6331673], [101.702694, 29.6333993], [101.7025309, 29.6335231], [101.7023455, 29.6336079], [101.7021929, 29.6337269], [101.7019448, 29.6338459], [101.7016251, 29.6339935], [101.7013146, 29.6341184], [101.7010413, 29.6341922], [101.7007075, 29.634317], [101.7005539, 29.6344261], [101.7004471, 29.6345863], [101.7003663, 29.6347239], [101.7002604, 29.6349447], [101.7001268, 29.6351934], [101.6999587, 29.6357628], [101.6998871, 29.6360869], [101.6998084, 29.6363954], [101.6996623, 29.6369814], [101.6995241, 29.6372845], [101.6994272, 29.6377348], [101.6994159, 29.6381835]]}}, {"type": "Feature", "properties": {"from": "ticket", "to": "lake", "endpoints": [[101.6994159, 29.6381835], [101.6848224, 29.6511172]], "verified": true, "basis": "OSM 连通步道；端点吸附误差单独保留；非现场 GPX 或通行确认", "source": "https://www.openstreetmap.org/copyright", "wayIds": ["1300269251", "1300269254", "531488322", "1471985800", "1471985799", "1471985787", "1471985795"], "endpointOffsetMeters": [0, 0], "distanceKm": 2.63}, "geometry": {"type": "LineString", "coordinates": [[101.6994159, 29.6381835], [101.6993258, 29.6383797], [101.6993488, 29.6387109], [101.6993374, 29.6389515], [101.6991379, 29.6394041], [101.6991793, 29.639855], [101.6988437, 29.6403947], [101.6987463, 29.6408609], [101.6986983, 29.6413247], [101.6986115, 29.6415846], [101.6985624, 29.6418069], [101.6985254, 29.6420223], [101.6984389, 29.6422974], [101.6984014, 29.642639], [101.6983207, 29.6427814], [101.6982498, 29.6430551], [101.698035, 29.6433639], [101.6978503, 29.6435679], [101.6977984, 29.6436557], [101.6976266, 29.6441357], [101.697435, 29.644328], [101.697359, 29.6445112], [101.6972541, 29.6446497], [101.6971986, 29.6447986], [101.6971472, 29.6451888], [101.697163, 29.6454701], [101.6971644, 29.6454941], [101.6972287, 29.6456214], [101.6971586, 29.6457525], [101.6971415, 29.6458336], [101.6971411, 29.6461613], [101.6970337, 29.646226], [101.6969216, 29.6464185], [101.6968428, 29.6465072], [101.6967575, 29.6465766], [101.696624, 29.6465894], [101.6962307, 29.6466197], [101.696079, 29.6467083], [101.6957644, 29.6467922], [101.6955522, 29.6468292], [101.6954289, 29.6469141], [101.6953594, 29.6470118], [101.6953571, 29.6472401], [101.6953511, 29.6473608], [101.6953122, 29.647492], [101.6953898, 29.6477801], [101.6954948, 29.6479456], [101.6957057, 29.6480931], [101.695594, 29.6483435], [101.6955893, 29.6485045], [101.6954851, 29.6486173], [101.6954527, 29.648812], [101.6954611, 29.6490119], [101.6954202, 29.6492978], [101.695408, 29.6494356], [101.6953307, 29.649616], [101.6953245, 29.6497206], [101.6953377, 29.6498245], [101.6953077, 29.649932], [101.6951285, 29.650181], [101.6949252, 29.6504093], [101.6948104, 29.6505734], [101.6947193, 29.6505447], [101.6946452, 29.6504652], [101.6945628, 29.6504345], [101.6944306, 29.6504194], [101.6942664, 29.6503491], [101.6941036, 29.6503318], [101.6939977, 29.6503642], [101.6938732, 29.6504139], [101.6937001, 29.6504287], [101.6935201, 29.6504557], [101.6933466, 29.6504635], [101.693218, 29.6504343], [101.6931077, 29.6504339], [101.6930256, 29.6504558], [101.6929441, 29.6504955], [101.6927812, 29.650517], [101.6925517, 29.6505428], [101.6921021, 29.6506347], [101.6917183, 29.6507602], [101.6913836, 29.6509], [101.6908072, 29.651083], [101.6905294, 29.65116], [101.6901851, 29.6513128], [101.6898586, 29.6514194], [101.6896409, 29.6514735], [101.6893879, 29.6514524], [101.6889053, 29.6515412], [101.6884946, 29.6515259], [101.6882077, 29.6515343], [101.6878961, 29.6514909], [101.6876028, 29.6515581], [101.6873724, 29.6515498], [101.6871172, 29.6515697], [101.6869102, 29.6514737], [101.6868056, 29.6513662], [101.6866785, 29.6511662], [101.6865304, 29.6510726], [101.6861082, 29.6509539], [101.6857898, 29.6507258], [101.6856884, 29.6507041], [101.6854588, 29.6508081], [101.6853168, 29.6509011], [101.6850426, 29.6509851], [101.6848224, 29.6511172]]}}, {"type": "Feature", "properties": {"from": "bangmu", "to": "lake", "endpoints": [[101.7061694, 29.6258954], [101.6848224, 29.6511172]], "verified": true, "basis": "OSM 连通步道；端点吸附误差单独保留；非现场 GPX 或通行确认", "source": "https://www.openstreetmap.org/copyright", "wayIds": ["1300269251", "1300269254", "531488322", "1471985800", "1471985799", "1471985787", "1471985795", "531386150", "1427046411", "1427046412", "1427046409", "1427046410"], "endpointOffsetMeters": [0, 0], "distanceKm": 4.46}, "geometry": {"type": "LineString", "coordinates": [[101.7061694, 29.6258954], [101.7056054, 29.6258424], [101.7052245, 29.6258237], [101.7048812, 29.6260196], [101.7048061, 29.6261338], [101.7047712, 29.6264556], [101.7047658, 29.6266957], [101.7045486, 29.6268939], [101.7041892, 29.6273393], [101.7040926, 29.6275305], [101.7040872, 29.6277356], [101.7041463, 29.6283884], [101.7040873, 29.6287848], [101.7040605, 29.6289947], [101.7041409, 29.6292698], [101.7045003, 29.6296895], [101.7048812, 29.6300624], [101.7050958, 29.6302163], [101.7054015, 29.6304122], [101.7055513, 29.6307708], [101.7055657, 29.6308783], [101.7053265, 29.6311279], [101.7050475, 29.6315825], [101.704857, 29.6319252], [101.7046599, 29.632219], [101.7046053, 29.6323551], [101.7044842, 29.6324372], [101.7042438, 29.6325404], [101.7039178, 29.6327394], [101.7037678, 29.6328944], [101.7036991, 29.6329655], [101.7031285, 29.6331673], [101.702694, 29.6333993], [101.7025309, 29.6335231], [101.7023455, 29.6336079], [101.7021929, 29.6337269], [101.7019448, 29.6338459], [101.7016251, 29.6339935], [101.7013146, 29.6341184], [101.7010413, 29.6341922], [101.7007075, 29.634317], [101.7005539, 29.6344261], [101.7004471, 29.6345863], [101.7003663, 29.6347239], [101.7002604, 29.6349447], [101.7001268, 29.6351934], [101.6999587, 29.6357628], [101.6998871, 29.6360869], [101.6998084, 29.6363954], [101.6996623, 29.6369814], [101.6995241, 29.6372845], [101.6994272, 29.6377348], [101.6994159, 29.6381835], [101.6993258, 29.6383797], [101.6993488, 29.6387109], [101.6993374, 29.6389515], [101.6991379, 29.6394041], [101.6991793, 29.639855], [101.6988437, 29.6403947], [101.6987463, 29.6408609], [101.6986983, 29.6413247], [101.6986115, 29.6415846], [101.6985624, 29.6418069], [101.6985254, 29.6420223], [101.6984389, 29.6422974], [101.6984014, 29.642639], [101.6983207, 29.6427814], [101.6982498, 29.6430551], [101.698035, 29.6433639], [101.6978503, 29.6435679], [101.6977984, 29.6436557], [101.6976266, 29.6441357], [101.697435, 29.644328], [101.697359, 29.6445112], [101.6972541, 29.6446497], [101.6971986, 29.6447986], [101.6971472, 29.6451888], [101.697163, 29.6454701], [101.6971644, 29.6454941], [101.6972287, 29.6456214], [101.6971586, 29.6457525], [101.6971415, 29.6458336], [101.6971411, 29.6461613], [101.6970337, 29.646226], [101.6969216, 29.6464185], [101.6968428, 29.6465072], [101.6967575, 29.6465766], [101.696624, 29.6465894], [101.6962307, 29.6466197], [101.696079, 29.6467083], [101.6957644, 29.6467922], [101.6955522, 29.6468292], [101.6954289, 29.6469141], [101.6953594, 29.6470118], [101.6953571, 29.6472401], [101.6953511, 29.6473608], [101.6953122, 29.647492], [101.6953898, 29.6477801], [101.6954948, 29.6479456], [101.6957057, 29.6480931], [101.695594, 29.6483435], [101.6955893, 29.6485045], [101.6954851, 29.6486173], [101.6954527, 29.648812], [101.6954611, 29.6490119], [101.6954202, 29.6492978], [101.695408, 29.6494356], [101.6953307, 29.649616], [101.6953245, 29.6497206], [101.6953377, 29.6498245], [101.6953077, 29.649932], [101.6951285, 29.650181], [101.6949252, 29.6504093], [101.6948104, 29.6505734], [101.6947193, 29.6505447], [101.6946452, 29.6504652], [101.6945628, 29.6504345], [101.6944306, 29.6504194], [101.6942664, 29.6503491], [101.6941036, 29.6503318], [101.6939977, 29.6503642], [101.6938732, 29.6504139], [101.6937001, 29.6504287], [101.6935201, 29.6504557], [101.6933466, 29.6504635], [101.693218, 29.6504343], [101.6931077, 29.6504339], [101.6930256, 29.6504558], [101.6929441, 29.6504955], [101.6927812, 29.650517], [101.6925517, 29.6505428], [101.6921021, 29.6506347], [101.6917183, 29.6507602], [101.6913836, 29.6509], [101.6908072, 29.651083], [101.6905294, 29.65116], [101.6901851, 29.6513128], [101.6898586, 29.6514194], [101.6896409, 29.6514735], [101.6893879, 29.6514524], [101.6889053, 29.6515412], [101.6884946, 29.6515259], [101.6882077, 29.6515343], [101.6878961, 29.6514909], [101.6876028, 29.6515581], [101.6873724, 29.6515498], [101.6871172, 29.6515697], [101.6869102, 29.6514737], [101.6868056, 29.6513662], [101.6866785, 29.6511662], [101.6865304, 29.6510726], [101.6861082, 29.6509539], [101.6857898, 29.6507258], [101.6856884, 29.6507041], [101.6854588, 29.6508081], [101.6853168, 29.6509011], [101.6850426, 29.6509851], [101.6848224, 29.6511172]]}}]}